OBJECT_NAME,OBJECT_ID,EPOCH,MEAN_MOTION,ECCENTRICITY,INCLINATION,RA_OF_ASC_NODE,ARG_OF_PERICENTER,MEAN_ANOMALY,EPHEMERIS_TYPE,CLASSIFICATION_TYPE,NORAD_CAT_ID,ELEMENT_SET_NO,REV_AT_EPOCH,BSTAR,MEAN_MOTION_DOT,MEAN_MOTION_DDOT
STARS (KUKAI),2009-002G,2026-06-08T09:19:18.655104,14.95687325,.0008139,98.1539,106.3380,188.3037,171.8049,0,U,33498,999,93716,.34229E-3,.3748E-4,0
KKS-1 (KISEKI),2009-002H,2026-06-08T11:39:44.834976,14.83102467,.0007063,98.1193,81.7904,328.5178,31.5611,0,U,33499,999,93490,.18948E-3,.1488E-4,0
UK-DMC 2,2009-041C,2026-06-08T11:32:23.313696,14.76018210,.0001308,97.8828,294.6609,72.7225,287.4127,0,U,35683,999,90528,.17417E-3,.115E-4,0
OCEANSAT-2,2009-051A,2026-06-08T11:28:43.671072,13.99664089,.0014646,98.2330,147.1985,262.7015,97.2487,0,U,35931,999,87811,.9836E-4,.106E-5,0
SWISSCUBE,2009-051B,2026-06-08T00:00:58.440960,14.62465103,.00054748,98.4042,66.7288,236.3791,123.6888,0,U,35932,999,88781,.23775073E-3,.1155E-4,0
BEESAT-1,2009-051C,2026-06-08T11:37:42.205728,14.61707016,.0003903,98.3972,66.8746,251.6493,108.4283,0,U,35933,999,88791,.19297E-3,.912E-5,0
ITUPSAT1,2009-051E,2026-06-07T23:43:00.084288,14.60427678,.00060745,98.4056,65.5723,268.4530,91.5974,0,U,35935,999,88739,.1903704E-3,.873E-5,0
DMSP 5D-3 F18 (USA 210),2009-057A,2026-06-08T10:37:54.869952,14.14891886,.0009875,98.9034,140.2313,277.4610,82.5440,0,U,35951,999,85835,.15178E-3,.248E-5,0
PROBA-2,2009-059B,2026-06-08T12:08:35.787264,14.54858836,.0012247,98.2451,342.9793,311.5420,48.4726,0,U,36037,999,88026,.59168E-4,.209E-5,0
YAOGAN-7,2009-069A,2026-06-08T10:09:27.251712,14.78001090,.0025957,98.0083,45.3441,68.7505,291.6475,0,U,36110,999,88833,.79015E-4,.52E-5,0
XIWANG-1 (HOPE-1),2009-072B,2026-06-08T12:05:44.102688,13.16439073,.0006793,100.4026,113.4750,253.9299,106.1066,0,U,36122,999,79186,-.19076E-3,-.117E-5,0
COSMOS 2463,2010-017A,2026-06-08T08:45:19.533024,13.71665190,.0036894,82.9608,256.1872,152.7015,273.6741,0,U,36519,999,80672,.38832E-4,.51E-6,0
CARTOSAT-2B,2010-035A,2026-06-08T11:23:51.643392,14.78650175,.0010458,97.9954,210.0799,213.7437,146.3110,0,U,36795,999,85856,.67773E-4,.444E-5,0
TISAT 1,2010-035E,2026-06-08T02:25:12.508608,15.31365756,.00001376,98.0701,104.8459,151.1351,208.9896,0,U,36799,999,86631,.73457821E-3,.22207E-3,0
YAOGAN-10,2010-038A,2026-06-08T12:53:21.958944,14.85325257,.0001703,97.8982,183.0109,86.9930,32.0865,0,U,36834,999,85592,.24156E-3,.2023E-4,0
SHIJIAN-6 04B (SJ-6 04B),2010-051B,2026-06-08T11:31:44.819040,14.99295707,.0009224,97.8686,164.8022,341.6538,18.4351,0,U,37180,999,85437,.10481E-3,.1219E-4,0
FENGYUN 3B,2010-059A,2026-06-08T13:02:39.640704,14.14840667,.0021441,98.9622,205.5213,209.0130,257.1919,0,U,37214,999,80620,.11583E-3,.179E-5,0
COSMO-SKYMED 4,2010-060A,2026-06-08T09:32:08.023776,14.82162251,.0001414,97.8890,343.1246,83.8256,276.3118,0,U,37216,999,84326,.70656E-4,.51E-5,0
O/OREOS (USA 219),2010-062C,2026-06-08T05:19:50.428416,14.93705882,.0012377,71.9703,100.6454,82.7455,277.5122,0,U,37224,999,11530,.23355E-3,.2414E-4,0
RESOURCESAT-2,2011-015A,2026-06-08T12:03:20.849760,14.21604666,.0010135,98.7644,227.0038,283.5835,76.4213,0,U,37387,999,78494,.55281E-4,.77E-6,0
YOUTHSAT,2011-015B,2026-06-08T12:49:17.503968,14.25626880,.0014774,98.3677,133.9787,12.5158,102.9055,0,U,37388,999,78640,.10641E-3,.211E-5,0
APRIZESAT 6,2011-044F,2026-06-08T11:53:58.370208,14.76903299,.0044338,98.2371,69.8178,113.0317,59.6592,0,U,37793,999,79586,.11201E-3,.744E-5,0
JUGNU,2011-058B,2026-06-08T05:51:26.000352,14.13774450,.00185229,19.9622,2.7589,337.7505,350.9134,0,U,37839,999,75775,.83199979E-4,.426E-5,0
SRMSAT,2011-058D,2026-06-08T04:49:16.000032,14.11573773,.00119531,19.9708,113.8594,105.3030,101.4235,0,U,37841,999,75654,.61376452E-4,.378E-5,0
SUOMI NPP,2011-061A,2026-06-08T12:42:53.030016,14.19515650,.0002007,98.7952,100.4651,25.8525,334.2751,0,U,37849,999,75721,.58452E-4,.79E-6,0
YAOGAN-12,2011-066B,2026-06-08T13:08:38.013216,15.26498055,.000802,97.1151,198.5226,252.8130,107.2231,0,U,37875,999,81072,.27346E-3,.7075E-4,0
