STARS (KUKAI)           
1 33498U 09002G   26159.38841036  .00003748  00000+0  34229-3 0  9998
2 33498  98.1539 106.3380 0008139 188.3037 171.8049 14.95687325937162
KKS-1 (KISEKI)          
1 33499U 09002H   26159.48593559  .00001488  00000+0  18948-3 0  9993
2 33499  98.1193  81.7904 0007063 328.5178  31.5611 14.83102467934908
UK-DMC 2                
1 35683U 09041C   26159.48082539  .00001150  00000+0  17417-3 0  9990
2 35683  97.8828 294.6609 0001308  72.7225 287.4127 14.76018210905287
OCEANSAT-2              
1 35931U 09051A   26159.47828323  .00000106  00000+0  98360-4 0  9992
2 35931  98.2330 147.1985 0014646 262.7015  97.2487 13.99664089878114
SWISSCUBE               
1 35932U 09051B   26159.00067640  .00001155  00000+0  23775-3 0  9991
2 35932  98.4042  66.7288 0005474 236.3791 123.6888 14.62465103887819
BEESAT-1                
1 35933U 09051C   26159.48451627  .00000912  00000+0  19297-3 0  9990
2 35933  98.3972  66.8746 0003903 251.6493 108.4283 14.61707016887917
ITUPSAT1                
1 35935U 09051E   26158.98819542  .00000873  00000+0  19037-3 0  9998
2 35935  98.4056  65.5723 0006074 268.4530  91.5974 14.60427678887397
DMSP 5D-3 F18 (USA 210) 
1 35951U 09057A   26159.44299618  .00000248  00000+0  15178-3 0  9998
2 35951  98.9034 140.2313 0009875 277.4610  82.5440 14.14891886858350
PROBA-2                 
1 36037U 09059B   26159.50596976  .00000209  00000+0  59168-4 0  9995
2 36037  98.2451 342.9793 0012247 311.5420  48.4726 14.54858836880266
YAOGAN-7                
1 36110U 09069A   26159.42323208  .00000520  00000+0  79015-4 0  9994
2 36110  98.0083  45.3441 0025957  68.7505 291.6475 14.78001090888335
XIWANG-1 (HOPE-1)       
1 36122U 09072B   26159.50398267 -.00000117  00000+0 -19076-3 0  9991
2 36122 100.4026 113.4750 0006793 253.9299 106.1066 13.16439073791862
COSMOS 2463             
1 36519U 10017A   26159.36480941  .00000051  00000+0  38832-4 0  9994
2 36519  82.9608 256.1872 0036894 152.7015 273.6741 13.71665190806723
CARTOSAT-2B             
1 36795U 10035A   26159.47490328  .00000444  00000+0  67773-4 0  9994
2 36795  97.9954 210.0799 0010458 213.7437 146.3110 14.78650175858560
TISAT 1                 
1 36799U 10035E   26159.10083922  .00022207  00000+0  73458-3 0  9993
2 36799  98.0701 104.8459 0000137 151.1351 208.9896 15.31365756866318
YAOGAN-10               
1 36834U 10038A   26159.53705971  .00002023  00000+0  24156-3 0  9993
2 36834  97.8982 183.0109 0001703  86.9930  32.0865 14.85325257855922
SHIJIAN-6 04B (SJ-6 04B)
1 37180U 10051B   26159.48037985  .00001219  00000+0  10481-3 0  9992
2 37180  97.8686 164.8022 0009224 341.6538  18.4351 14.99295707854377
FENGYUN 3B              
1 37214U 10059A   26159.54351436  .00000179  00000+0  11583-3 0  9993
2 37214  98.9622 205.5213 0021441 209.0130 257.1919 14.14840667806201
COSMO-SKYMED 4          
1 37216U 10060A   26159.39731509  .00000510  00000+0  70656-4 0  9999
2 37216  97.8890 343.1246 0001414  83.8256 276.3118 14.82162251843260
O/OREOS (USA 219)       
1 37224U 10062C   26159.22211144  .00002414  00000+0  23355-3 0  9998
2 37224  71.9703 100.6454 0012377  82.7455 277.5122 14.93705882115301
RESOURCESAT-2           
1 37387U 11015A   26159.50232465  .00000077  00000+0  55281-4 0  9994
2 37387  98.7644 227.0038 0010135 283.5835  76.4213 14.21604666784945
YOUTHSAT                
1 37388U 11015B   26159.53423037  .00000211  00000+0  10641-3 0  9995
2 37388  98.3677 133.9787 0014774  12.5158 102.9055 14.25626880786403
APRIZESAT 6             
1 37793U 11044F   26159.49581447  .00000744  00000+0  11201-3 0  9996
2 37793  98.2371  69.8178 0044338 113.0317  59.6592 14.76903299795869
JUGNU                   
1 37839U 11058B   26159.24405093  .00000426  00000+0  83200-4 0  9993
2 37839  19.9622   2.7589 0018522 337.7505 350.9134 14.13774450757752
SRMSAT                  
1 37841U 11058D   26159.20087963  .00000378  00000+0  61376-4 0  9990
2 37841  19.9708 113.8594 0011953 105.3030 101.4235 14.11573773756543
SUOMI NPP               
1 37849U 11061A   26159.52978044  .00000079  00000+0  58452-4 0  9995
2 37849  98.7952 100.4651 0002007  25.8525 334.2751 14.19515650757210
YAOGAN-12               
1 37875U 11066B   26159.54766219  .00007075  00000+0  27346-3 0  9990
2 37875  97.1151 198.5226 0008020 252.8130 107.2231 15.26498055810729
